start=new Date('2022-08-25T00:00:00.000Z').valueOf();
sats=[{"FILE":"3546663","CLASSIFICATION_TYPE":"U","MEAN_MOTION_DOT":"-0.00007910","MEAN_MOTION":"15.08841512","DECAY_DATE":null,"CENTER_NAME":"EARTH","MEAN_ELEMENT_THEORY":"SGP4","LAUNCH_DATE":"2022-05-06","TLE_LINE2":"2 52484  53.2180 102.5990 0001626  57.8610 123.7426 15.08841512  1306","PERIOD":"95.437","OBJECT_ID":"2022-049AK","MEAN_ANOMALY":"123.7426","RA_OF_ASC_NODE":"102.5990","GP_ID":"210936536","ECCENTRICITY":"0.00016260","SITE":"AFETR","ARG_OF_PERICENTER":"57.8610","EPHEMERIS_TYPE":"0","OBJECT_TYPE":"PAYLOAD","BSTAR":"-0.00047940000000","REV_AT_EPOCH":"130","OBJECT_NAME":"STARLINK-3887","REF_FRAME":"TEME","MEAN_MOTION_DDOT":"0.0000000000000","APOAPSIS":"540.866","COUNTRY_CODE":"US","TLE_LINE1":"1 52484U 22049AK  22236.91667824 -.00007910  00000-0 -47940-3 0  9994","SEMIMAJOR_AXIS":"6917.876","NORAD_CAT_ID":"52484","TIME_SYSTEM":"UTC","INCLINATION":"53.2180","ELEMENT_SET_NO":"999","RCS_SIZE":"LARGE","PERIAPSIS":"538.616","EPOCH":"2022-08-24T22:00:00.999936"},{"CLASSIFICATION_TYPE":"U","FILE":"3546663","MEAN_MOTION":"15.08855013","MEAN_MOTION_DOT":"-0.00010302","CENTER_NAME":"EARTH","DECAY_DATE":null,"MEAN_ELEMENT_THEORY":"SGP4","LAUNCH_DATE":"2022-05-06","PERIOD":"95.437","TLE_LINE2":"2 52485  53.2138  92.6024 0002088  61.0896  15.5216 15.08855013  1309","OBJECT_ID":"2022-049AL","MEAN_ANOMALY":"15.5216","RA_OF_ASC_NODE":"92.6024","SITE":"AFETR","GP_ID":"210936658","ECCENTRICITY":"0.00020880","ARG_OF_PERICENTER":"61.0896","OBJECT_TYPE":"PAYLOAD","EPHEMERIS_TYPE":"0","BSTAR":"-0.00062979000000","REV_AT_EPOCH":"130","OBJECT_NAME":"STARLINK-3913","REF_FRAME":"TEME","MEAN_MOTION_DDOT":"0.0000000000000","APOAPSIS":"541.144","COUNTRY_CODE":"US","SEMIMAJOR_AXIS":"6917.835","TLE_LINE1":"1 52485U 22049AL  22236.91667824 -.00010302  00000-0 -62979-3 0  9993","NORAD_CAT_ID":"52485","TIME_SYSTEM":"UTC","INCLINATION":"53.2138","ELEMENT_SET_NO":"999","RCS_SIZE":"LARGE","EPOCH":"2022-08-24T22:00:00.999936","PERIAPSIS":"538.255"},{"RCS_SIZE":"MEDIUM","EPOCH":"2022-08-24T22:00:00.999936","PERIAPSIS":"538.546","INCLINATION":"53.2167","ELEMENT_SET_NO":"999","TIME_SYSTEM":"UTC","SEMIMAJOR_AXIS":"6917.908","TLE_LINE1":"1 52486U 22049AM  22236.91667824 -.00007004  00000-0 -42247-3 0  9995","NORAD_CAT_ID":"52486","MEAN_MOTION_DDOT":"0.0000000000000","APOAPSIS":"540.999","COUNTRY_CODE":"US","REF_FRAME":"TEME","BSTAR":"-0.00042247000000","REV_AT_EPOCH":"130","OBJECT_NAME":"STARLINK-3918","OBJECT_TYPE":"PAYLOAD","EPHEMERIS_TYPE":"0","SITE":"AFETR","GP_ID":"210936804","ECCENTRICITY":"0.00017730","ARG_OF_PERICENTER":"67.3285","MEAN_ANOMALY":"154.3083","RA_OF_ASC_NODE":"102.5940","PERIOD":"95.438","TLE_LINE2":"2 52486  53.2167 102.5940 0001773  67.3285 154.3083 15.08831069  1300","OBJECT_ID":"2022-049AM","MEAN_ELEMENT_THEORY":"SGP4","LAUNCH_DATE":"2022-05-06","MEAN_MOTION":"15.08831069","MEAN_MOTION_DOT":"-0.00007004","CENTER_NAME":"EARTH","DECAY_DATE":null,"CLASSIFICATION_TYPE":"U","FILE":"3546663"},{"EPHEMERIS_TYPE":"0","OBJECT_TYPE":"PAYLOAD","BSTAR":"-0.00038981000000","REV_AT_EPOCH":"130","OBJECT_NAME":"STARLINK-3902","REF_FRAME":"TEME","APOAPSIS":"540.976","MEAN_MOTION_DDOT":"0.0000000000000","COUNTRY_CODE":"US","TLE_LINE1":"1 52487U 22049AN  22236.91667824 -.00006488  00000-0 -38981-3 0  9991","SEMIMAJOR_AXIS":"6917.849","NORAD_CAT_ID":"52487","TIME_SYSTEM":"UTC","INCLINATION":"53.2152","ELEMENT_SET_NO":"999","RCS_SIZE":"LARGE","PERIAPSIS":"538.452","EPOCH":"2022-08-24T22:00:00.999936","FILE":"3546663","CLASSIFICATION_TYPE":"U","MEAN_MOTION_DOT":"-0.00006488","MEAN_MOTION":"15.08850201","DECAY_DATE":null,"CENTER_NAME":"EARTH","LAUNCH_DATE":"2022-05-06","MEAN_ELEMENT_THEORY":"SGP4","TLE_LINE2":"2 52487  53.2152  92.6028 0001824  60.8004  10.6200 15.08850201  1309","PERIOD":"95.437","OBJECT_ID":"2022-049AN","RA_OF_ASC_NODE":"92.6028","MEAN_ANOMALY":"10.6200","ECCENTRICITY":"0.00018240","GP_ID":"210937098","SITE":"AFETR","ARG_OF_PERICENTER":"60.8004"},{"ARG_OF_PERICENTER":"61.7624","SITE":"AFETR","ECCENTRICITY":"0.00018070","GP_ID":"210936950","MEAN_ANOMALY":"179.8465","RA_OF_ASC_NODE":"102.5938","OBJECT_ID":"2022-049AP","PERIOD":"95.437","TLE_LINE2":"2 52488  53.2177 102.5938 0001807  61.7624 179.8465 15.08843623  1308","LAUNCH_DATE":"2022-05-06","MEAN_ELEMENT_THEORY":"SGP4","CENTER_NAME":"EARTH","DECAY_DATE":null,"MEAN_MOTION":"15.08843623","MEAN_MOTION_DOT":"-0.00007381","CLASSIFICATION_TYPE":"U","FILE":"3546663","EPOCH":"2022-08-24T22:00:00.999936","PERIAPSIS":"538.484","RCS_SIZE":"LARGE","ELEMENT_SET_NO":"999","INCLINATION":"53.2177","TIME_SYSTEM":"UTC","NORAD_CAT_ID":"52488","SEMIMAJOR_AXIS":"6917.869","TLE_LINE1":"1 52488U 22049AP  22236.91667824 -.00007381  00000-0 -44608-3 0  9998","COUNTRY_CODE":"US","APOAPSIS":"540.984","MEAN_MOTION_DDOT":"0.0000000000000","REF_FRAME":"TEME","OBJECT_NAME":"STARLINK-3892","REV_AT_EPOCH":"130","BSTAR":"-0.00044608000000","OBJECT_TYPE":"PAYLOAD","EPHEMERIS_TYPE":"0"},{"EPHEMERIS_TYPE":"0","OBJECT_TYPE":"PAYLOAD","REV_AT_EPOCH":"130","OBJECT_NAME":"STARLINK-3923","BSTAR":"-0.00044449000000","REF_FRAME":"TEME","COUNTRY_CODE":"US","MEAN_MOTION_DDOT":"0.0000000000000","APOAPSIS":"540.966","NORAD_CAT_ID":"52489","TLE_LINE1":"1 52489U 22049AQ  22236.91667824 -.00007356  00000-0 -44449-3 0  9994","SEMIMAJOR_AXIS":"6917.865","TIME_SYSTEM":"UTC","ELEMENT_SET_NO":"999","INCLINATION":"53.2177","PERIAPSIS":"538.494","EPOCH":"2022-08-24T22:00:00.999936","RCS_SIZE":"LARGE","FILE":"3546663","CLASSIFICATION_TYPE":"U","DECAY_DATE":null,"CENTER_NAME":"EARTH","MEAN_MOTION_DOT":"-0.00007356","MEAN_MOTION":"15.08845085","MEAN_ELEMENT_THEORY":"SGP4","LAUNCH_DATE":"2022-05-06","OBJECT_ID":"2022-049AQ","TLE_LINE2":"2 52489  53.2177 102.5965 0001787  59.3587 142.2375 15.08845085  1305","PERIOD":"95.437","MEAN_ANOMALY":"142.2375","RA_OF_ASC_NODE":"102.5965","ARG_OF_PERICENTER":"59.3587","ECCENTRICITY":"0.00017870","GP_ID":"210936245","SITE":"AFETR"},{"RCS_SIZE":"LARGE","EPOCH":"2022-08-24T22:00:00.999936","PERIAPSIS":"538.526","INCLINATION":"53.2188","ELEMENT_SET_NO":"999","TIME_SYSTEM":"UTC","SEMIMAJOR_AXIS":"6917.893","TLE_LINE1":"1 52490U 22049AR  22236.91667824 -.00002244  00000-0 -12295-3 0  9991","NORAD_CAT_ID":"52490","MEAN_MOTION_DDOT":"0.0000000000000","APOAPSIS":"540.991","COUNTRY_CODE":"US","REF_FRAME":"TEME","BSTAR":"-0.00012295000000","REV_AT_EPOCH":"130","OBJECT_NAME":"STARLINK-3914","OBJECT_TYPE":"PAYLOAD","EPHEMERIS_TYPE":"0","SITE":"AFETR","ECCENTRICITY":"0.00017820","GP_ID":"210936391","ARG_OF_PERICENTER":"55.7907","RA_OF_ASC_NODE":"92.5929","MEAN_ANOMALY":"100.8313","PERIOD":"95.438","TLE_LINE2":"2 52490  53.2188  92.5929 0001782  55.7907 100.8313 15.08835732  1308","OBJECT_ID":"2022-049AR","MEAN_ELEMENT_THEORY":"SGP4","LAUNCH_DATE":"2022-05-06","MEAN_MOTION":"15.08835732","MEAN_MOTION_DOT":"-0.00002244","CENTER_NAME":"EARTH","DECAY_DATE":null,"CLASSIFICATION_TYPE":"U","FILE":"3546663"},{"DECAY_DATE":null,"CENTER_NAME":"EARTH","MEAN_MOTION_DOT":"-0.00005547","MEAN_MOTION":"15.08839394","MEAN_ELEMENT_THEORY":"SGP4","LAUNCH_DATE":"2022-05-06","FILE":"3546663","CLASSIFICATION_TYPE":"U","MEAN_ANOMALY":"59.2058","RA_OF_ASC_NODE":"92.5942","ARG_OF_PERICENTER":"57.3713","GP_ID":"210937266","ECCENTRICITY":"0.00020150","SITE":"AFETR","OBJECT_ID":"2022-049AS","TLE_LINE2":"2 52491  53.2176  92.5942 0002015  57.3713  59.2058 15.08839394  1305","PERIOD":"95.438","REF_FRAME":"TEME","COUNTRY_CODE":"US","APOAPSIS":"541.141","MEAN_MOTION_DDOT":"0.0000000000000","EPHEMERIS_TYPE":"0","OBJECT_TYPE":"PAYLOAD","REV_AT_EPOCH":"130","OBJECT_NAME":"STARLINK-3908","BSTAR":"-0.00033065000000","ELEMENT_SET_NO":"999","INCLINATION":"53.2176","PERIAPSIS":"538.353","EPOCH":"2022-08-24T22:00:00.999936","RCS_SIZE":"LARGE","NORAD_CAT_ID":"52491","TLE_LINE1":"1 52491U 22049AS  22236.91667824 -.00005547  00000-0 -33065-3 0  9999","SEMIMAJOR_AXIS":"6917.882","TIME_SYSTEM":"UTC"},{"TLE_LINE2":"2 52492  53.2195  92.5941 0002103  51.0875 145.5215 15.08834139  1300","PERIOD":"95.438","OBJECT_ID":"2022-049AT","RA_OF_ASC_NODE":"92.5941","MEAN_ANOMALY":"145.5215","ECCENTRICITY":"0.00021030","GP_ID":"210936537","SITE":"AFETR","ARG_OF_PERICENTER":"51.0875","FILE":"3546663","CLASSIFICATION_TYPE":"U","MEAN_MOTION_DOT":"0.00001891","MEAN_MOTION":"15.08834139","DECAY_DATE":null,"CENTER_NAME":"EARTH","MEAN_ELEMENT_THEORY":"SGP4","LAUNCH_DATE":"2022-05-06","TLE_LINE1":"1 52492U 22049AT  22236.91667824  .00001891  00000-0  13690-3 0  9998","SEMIMAJOR_AXIS":"6917.898","NORAD_CAT_ID":"52492","TIME_SYSTEM":"UTC","INCLINATION":"53.2195","ELEMENT_SET_NO":"999","RCS_SIZE":"LARGE","PERIAPSIS":"538.308","EPOCH":"2022-08-24T22:00:00.999936","EPHEMERIS_TYPE":"0","OBJECT_TYPE":"PAYLOAD","BSTAR":"0.00013690000000","REV_AT_EPOCH":"130","OBJECT_NAME":"STARLINK-3916","REF_FRAME":"TEME","APOAPSIS":"541.218","MEAN_MOTION_DDOT":"0.0000000000000","COUNTRY_CODE":"US"},{"NORAD_CAT_ID":"52493","SEMIMAJOR_AXIS":"6917.899","TLE_LINE1":"1 52493U 22049AU  22236.91667824 -.00003485  00000-0 -20097-3 0  9991","TIME_SYSTEM":"UTC","ELEMENT_SET_NO":"999","INCLINATION":"53.2184","EPOCH":"2022-08-24T22:00:00.999936","PERIAPSIS":"538.386","RCS_SIZE":"MEDIUM","OBJECT_TYPE":"PAYLOAD","EPHEMERIS_TYPE":"0","OBJECT_NAME":"STARLINK-3883","REV_AT_EPOCH":"130","BSTAR":"-0.00020097000000","REF_FRAME":"TEME","COUNTRY_CODE":"US","APOAPSIS":"541.141","MEAN_MOTION_DDOT":"0.0000000000000","OBJECT_ID":"2022-049AU","PERIOD":"95.438","TLE_LINE2":"2 52493  53.2184  92.5929 0001991  56.3688  80.2193 15.08834055  1306","RA_OF_ASC_NODE":"92.5929","MEAN_ANOMALY":"80.2193","ARG_OF_PERICENTER":"56.3688","SITE":"AFETR","ECCENTRICITY":"0.00019910","GP_ID":"210936659","CLASSIFICATION_TYPE":"U","FILE":"3546663","CENTER_NAME":"EARTH","DECAY_DATE":null,"MEAN_MOTION":"15.08834055","MEAN_MOTION_DOT":"-0.00003485","MEAN_ELEMENT_THEORY":"SGP4","LAUNCH_DATE":"2022-05-06"}];
